start=new Date('2022-02-27T00:00:00.000Z').valueOf();
sats=[{"MEAN_MOTION":"15.06397713","REF_FRAME":"TEME","CENTER_NAME":"EARTH","MEAN_MOTION_DDOT":"0.0000000000000","CLASSIFICATION_TYPE":"U","COUNTRY_CODE":"US","EPOCH":"2022-02-26T19:37:28.948224","TLE_LINE2":"2 48659  53.0539 249.1172 0001460  83.9164 276.1992 15.06397713 41864","EPHEMERIS_TYPE":"0","TLE_LINE1":"1 48659U 21044X   22057.81769616  .00001073  00000-0  90894-4 0  9998","MEAN_ELEMENT_THEORY":"SGP4","REV_AT_EPOCH":"4186","RCS_SIZE":"LARGE","LAUNCH_DATE":"2021-05-26","ARG_OF_PERICENTER":"83.9164","GP_ID":"197160863","TIME_SYSTEM":"UTC","ECCENTRICITY":"0.00014600","NORAD_CAT_ID":"48659","OBJECT_ID":"2021-044X","FILE":"3327391","APOAPSIS":"548.232","OBJECT_TYPE":"PAYLOAD","RA_OF_ASC_NODE":"249.1172","DECAY_DATE":null,"SITE":"AFETR","SEMIMAJOR_AXIS":"6925.356","OBJECT_NAME":"STARLINK-2717","MEAN_MOTION_DOT":"0.00001073","ELEMENT_SET_NO":"999","BSTAR":"0.00009089400000","INCLINATION":"53.0539","PERIOD":"95.592","MEAN_ANOMALY":"276.1992","PERIAPSIS":"546.209"},{"EPOCH":"2022-02-26T19:32:11.126688","TLE_LINE2":"2 48660  53.0551 249.1297 0001564  84.5132 275.6035 15.06395893 41864","MEAN_MOTION":"15.06395893","REF_FRAME":"TEME","CENTER_NAME":"EARTH","MEAN_MOTION_DDOT":"0.0000000000000","CLASSIFICATION_TYPE":"U","COUNTRY_CODE":"US","MEAN_ELEMENT_THEORY":"SGP4","REV_AT_EPOCH":"4186","RCS_SIZE":"LARGE","ARG_OF_PERICENTER":"84.5132","LAUNCH_DATE":"2021-05-26","EPHEMERIS_TYPE":"0","TLE_LINE1":"1 48660U 21044Y   22057.81401767  .00000238  00000-0  34901-4 0  9999","NORAD_CAT_ID":"48660","ECCENTRICITY":"0.00015640","OBJECT_ID":"2021-044Y","FILE":"3327391","APOAPSIS":"548.309","GP_ID":"197162115","TIME_SYSTEM":"UTC","BSTAR":"0.00003490100000","INCLINATION":"53.0551","PERIOD":"95.592","MEAN_ANOMALY":"275.6035","PERIAPSIS":"546.143","OBJECT_TYPE":"PAYLOAD","RA_OF_ASC_NODE":"249.1297","DECAY_DATE":null,"SITE":"AFETR","SEMIMAJOR_AXIS":"6925.361","MEAN_MOTION_DOT":"0.00000238","ELEMENT_SET_NO":"999","OBJECT_NAME":"STARLINK-2688"},{"BSTAR":"0.00011974000000","MEAN_ANOMALY":"294.5065","PERIAPSIS":"546.020","PERIOD":"95.592","INCLINATION":"53.0564","DECAY_DATE":null,"OBJECT_TYPE":"PAYLOAD","RA_OF_ASC_NODE":"238.8241","SITE":"AFETR","ELEMENT_SET_NO":"999","SEMIMAJOR_AXIS":"6925.356","MEAN_MOTION_DOT":"0.00001502","OBJECT_NAME":"STARLINK-2708","ECCENTRICITY":"0.00017340","NORAD_CAT_ID":"48661","FILE":"3327391","OBJECT_ID":"2021-044Z","APOAPSIS":"548.422","TIME_SYSTEM":"UTC","GP_ID":"197161861","REV_AT_EPOCH":"4201","RCS_SIZE":"LARGE","MEAN_ELEMENT_THEORY":"SGP4","LAUNCH_DATE":"2021-05-26","ARG_OF_PERICENTER":"65.6105","EPHEMERIS_TYPE":"0","TLE_LINE1":"1 48661U 21044Z   22057.88128131  .00001502  00000-0  11974-3 0  9997","EPOCH":"2022-02-26T21:09:02.705184","TLE_LINE2":"2 48661  53.0564 238.8241 0001734  65.6105 294.5065 15.06397542 42016","MEAN_MOTION":"15.06397542","COUNTRY_CODE":"US","REF_FRAME":"TEME","CENTER_NAME":"EARTH","MEAN_MOTION_DDOT":"0.0000000000000","CLASSIFICATION_TYPE":"U"},{"DECAY_DATE":null,"OBJECT_TYPE":"PAYLOAD","RA_OF_ASC_NODE":"238.8455","SITE":"AFETR","ELEMENT_SET_NO":"999","SEMIMAJOR_AXIS":"6925.359","MEAN_MOTION_DOT":"-0.00000279","OBJECT_NAME":"STARLINK-2726","BSTAR":"0.00000018716000","MEAN_ANOMALY":"281.4942","PERIAPSIS":"546.157","INCLINATION":"53.0537","PERIOD":"95.592","TIME_SYSTEM":"UTC","GP_ID":"197161114","NORAD_CAT_ID":"48662","ECCENTRICITY":"0.00015410","OBJECT_ID":"2021-044AA","FILE":"3327391","APOAPSIS":"548.291","EPHEMERIS_TYPE":"0","TLE_LINE1":"1 48662U 21044AA  22057.87759580 -.00000279  00000-0  18716-6 0  9990","REV_AT_EPOCH":"4201","RCS_SIZE":"LARGE","MEAN_ELEMENT_THEORY":"SGP4","LAUNCH_DATE":"2021-05-26","ARG_OF_PERICENTER":"78.6220","MEAN_MOTION":"15.06396599","COUNTRY_CODE":"US","REF_FRAME":"TEME","MEAN_MOTION_DDOT":"0.0000000000000","CLASSIFICATION_TYPE":"U","CENTER_NAME":"EARTH","EPOCH":"2022-02-26T21:03:44.277120","TLE_LINE2":"2 48662  53.0537 238.8455 0001541  78.6220 281.4942 15.06396599 42012"},{"NORAD_CAT_ID":"48663","ECCENTRICITY":"0.00016980","APOAPSIS":"548.389","OBJECT_ID":"2021-044AB","FILE":"3327391","GP_ID":"197161364","TIME_SYSTEM":"UTC","BSTAR":"0.00014843000000","PERIOD":"95.592","INCLINATION":"53.0551","PERIAPSIS":"546.038","MEAN_ANOMALY":"284.0637","RA_OF_ASC_NODE":"238.8499","OBJECT_TYPE":"PAYLOAD","DECAY_DATE":null,"SEMIMAJOR_AXIS":"6925.348","ELEMENT_SET_NO":"999","MEAN_MOTION_DOT":"0.00001930","OBJECT_NAME":"STARLINK-2667","SITE":"AFETR","TLE_LINE2":"2 48663  53.0551 238.8499 0001698  76.0541 284.0637 15.06400020 42013","EPOCH":"2022-02-26T20:58:25.481856","MEAN_MOTION":"15.06400020","CENTER_NAME":"EARTH","MEAN_MOTION_DDOT":"0.0000000000000","CLASSIFICATION_TYPE":"U","REF_FRAME":"TEME","COUNTRY_CODE":"US","MEAN_ELEMENT_THEORY":"SGP4","RCS_SIZE":"LARGE","REV_AT_EPOCH":"4201","LAUNCH_DATE":"2021-05-26","ARG_OF_PERICENTER":"76.0541","EPHEMERIS_TYPE":"0","TLE_LINE1":"1 48663U 21044AB  22057.87390604  .00001930  00000-0  14843-3 0  9997"},{"DECAY_DATE":null,"OBJECT_TYPE":"PAYLOAD","RA_OF_ASC_NODE":"238.8834","SITE":"AFETR","SEMIMAJOR_AXIS":"6925.362","MEAN_MOTION_DOT":"-0.00001732","ELEMENT_SET_NO":"999","OBJECT_NAME":"STARLINK-2709","BSTAR":"-0.00009741700000","MEAN_ANOMALY":"295.1123","PERIAPSIS":"545.943","PERIOD":"95.592","INCLINATION":"53.0548","TIME_SYSTEM":"UTC","GP_ID":"197161615","NORAD_CAT_ID":"48664","ECCENTRICITY":"0.00018540","FILE":"3327391","OBJECT_ID":"2021-044AC","APOAPSIS":"548.511","EPHEMERIS_TYPE":"0","TLE_LINE1":"1 48664U 21044AC  22057.87022137 -.00001732  00000-0 -97417-4 0  9992","REV_AT_EPOCH":"4201","RCS_SIZE":"LARGE","MEAN_ELEMENT_THEORY":"SGP4","ARG_OF_PERICENTER":"65.0058","LAUNCH_DATE":"2021-05-26","MEAN_MOTION":"15.06395480","COUNTRY_CODE":"US","REF_FRAME":"TEME","MEAN_MOTION_DDOT":"0.0000000000000","CLASSIFICATION_TYPE":"U","CENTER_NAME":"EARTH","EPOCH":"2022-02-26T20:53:07.126368","TLE_LINE2":"2 48664  53.0548 238.8834 0001854  65.0058 295.1123 15.06395480 42014"},{"DECAY_DATE":null,"OBJECT_TYPE":"PAYLOAD","RA_OF_ASC_NODE":"238.8187","SITE":"AFETR","OBJECT_NAME":"STARLINK-2653","SEMIMAJOR_AXIS":"6925.338","MEAN_MOTION_DOT":"-0.00000543","ELEMENT_SET_NO":"999","BSTAR":"-0.00001754800000","MEAN_ANOMALY":"298.3753","PERIAPSIS":"546.117","PERIOD":"95.592","INCLINATION":"53.0558","TIME_SYSTEM":"UTC","GP_ID":"197162362","ECCENTRICITY":"0.00015680","NORAD_CAT_ID":"48665","FILE":"3327391","OBJECT_ID":"2021-044AD","APOAPSIS":"548.289","EPHEMERIS_TYPE":"0","TLE_LINE1":"1 48665U 21044AD  22057.88402697 -.00000543  00000-0 -17548-4 0  9993","REV_AT_EPOCH":"4201","RCS_SIZE":"LARGE","MEAN_ELEMENT_THEORY":"SGP4","ARG_OF_PERICENTER":"61.7394","LAUNCH_DATE":"2021-05-26","MEAN_MOTION":"15.06403430","COUNTRY_CODE":"US","REF_FRAME":"TEME","MEAN_MOTION_DDOT":"0.0000000000000","CLASSIFICATION_TYPE":"U","CENTER_NAME":"EARTH","EPOCH":"2022-02-26T21:12:59.930208","TLE_LINE2":"2 48665  53.0558 238.8187 0001568  61.7394 298.3753 15.06403430 42014"},{"EPHEMERIS_TYPE":"0","TLE_LINE1":"1 48666U 21044AE  22057.78450093 -.00000163  00000-0  79410-5 0  9990","REV_AT_EPOCH":"4199","RCS_SIZE":"LARGE","MEAN_ELEMENT_THEORY":"SGP4","ARG_OF_PERICENTER":"64.7099","LAUNCH_DATE":"2021-05-26","MEAN_MOTION":"15.06394755","COUNTRY_CODE":"US","REF_FRAME":"TEME","MEAN_MOTION_DDOT":"0.0000000000000","CENTER_NAME":"EARTH","CLASSIFICATION_TYPE":"U","EPOCH":"2022-02-26T18:49:40.880352","TLE_LINE2":"2 48666  53.0550 239.2524 0001584  64.7099 295.4054 15.06394755 41997","DECAY_DATE":null,"OBJECT_TYPE":"PAYLOAD","RA_OF_ASC_NODE":"239.2524","SITE":"AFETR","SEMIMAJOR_AXIS":"6925.365","MEAN_MOTION_DOT":"-0.00000163","ELEMENT_SET_NO":"999","OBJECT_NAME":"STARLINK-2666","BSTAR":"0.00000794100000","MEAN_ANOMALY":"295.4054","PERIAPSIS":"546.133","PERIOD":"95.592","INCLINATION":"53.0550","TIME_SYSTEM":"UTC","GP_ID":"197160614","NORAD_CAT_ID":"48666","ECCENTRICITY":"0.00015840","FILE":"3327391","OBJECT_ID":"2021-044AE","APOAPSIS":"548.327"},{"MEAN_ELEMENT_THEORY":"SGP4","REV_AT_EPOCH":"4201","RCS_SIZE":"LARGE","LAUNCH_DATE":"2021-05-26","ARG_OF_PERICENTER":"73.4232","EPHEMERIS_TYPE":"0","TLE_LINE1":"1 48667U 21044AF  22057.86653545 -.00000397  00000-0 -77618-5 0  9995","EPOCH":"2022-02-26T20:47:48.662880","TLE_LINE2":"2 48667  53.0551 238.8834 0001717  73.4232 286.6945 15.06400608 42012","MEAN_MOTION":"15.06400608","REF_FRAME":"TEME","CENTER_NAME":"EARTH","MEAN_MOTION_DDOT":"0.0000000000000","CLASSIFICATION_TYPE":"U","COUNTRY_CODE":"US","BSTAR":"-0.00000776180000","INCLINATION":"53.0551","PERIOD":"95.592","MEAN_ANOMALY":"286.6945","PERIAPSIS":"546.023","OBJECT_TYPE":"PAYLOAD","RA_OF_ASC_NODE":"238.8834","DECAY_DATE":null,"SITE":"AFETR","MEAN_MOTION_DOT":"-0.00000397","SEMIMAJOR_AXIS":"6925.347","OBJECT_NAME":"STARLINK-2735","ELEMENT_SET_NO":"999","NORAD_CAT_ID":"48667","ECCENTRICITY":"0.00017170","FILE":"3327391","OBJECT_ID":"2021-044AF","APOAPSIS":"548.401","GP_ID":"197160864","TIME_SYSTEM":"UTC"},{"TIME_SYSTEM":"UTC","GP_ID":"197162116","NORAD_CAT_ID":"48668","ECCENTRICITY":"0.00016680","FILE":"3327391","OBJECT_ID":"2021-044AG","APOAPSIS":"548.396","DECAY_DATE":null,"OBJECT_TYPE":"PAYLOAD","RA_OF_ASC_NODE":"239.2038","SITE":"AFETR","SEMIMAJOR_AXIS":"6925.376","MEAN_MOTION_DOT":"-0.00000028","OBJECT_NAME":"STARLINK-2738","ELEMENT_SET_NO":"999","BSTAR":"0.00001705300000","MEAN_ANOMALY":"285.3788","PERIAPSIS":"546.086","PERIOD":"95.593","INCLINATION":"53.0555","MEAN_MOTION":"15.06391040","COUNTRY_CODE":"US","REF_FRAME":"TEME","CLASSIFICATION_TYPE":"U","MEAN_MOTION_DDOT":"0.0000000000000","CENTER_NAME":"EARTH","EPOCH":"2022-02-26T19:06:58.629024","TLE_LINE2":"2 48668  53.0555 239.2038 0001668  74.7385 285.3788 15.06391040 42005","EPHEMERIS_TYPE":"0","TLE_LINE1":"1 48668U 21044AG  22057.79651191 -.00000028  00000-0  17053-4 0  9999","REV_AT_EPOCH":"4200","RCS_SIZE":"LARGE","MEAN_ELEMENT_THEORY":"SGP4","LAUNCH_DATE":"2021-05-26","ARG_OF_PERICENTER":"74.7385"}];
